start=new Date('2022-06-19T00:00:00.000Z').valueOf();
sats=[{"TLE_LINE2":"2 52363  53.2174 203.0141 0001252  70.1834  89.2100 15.62291086  1301","MEAN_ELEMENT_THEORY":"SGP4","CENTER_NAME":"EARTH","APOAPSIS":"381.889","SITE":"AFETR","NORAD_CAT_ID":"52363","MEAN_MOTION_DOT":"-0.00715253","RA_OF_ASC_NODE":"203.0141","PERIAPSIS":"380.197","SEMIMAJOR_AXIS":"6759.178","ECCENTRICITY":"0.00012520","GP_ID":"206291093","MEAN_MOTION_DDOT":"0.0000000000000","RCS_SIZE":"LARGE","OBJECT_ID":"2022-045AJ","TIME_SYSTEM":"UTC","LAUNCH_DATE":"2022-04-29","PERIOD":"92.172","MEAN_MOTION":"15.62291086","BSTAR":"-0.00867570000000","CLASSIFICATION_TYPE":"U","EPHEMERIS_TYPE":"0","FILE":"3497002","DECAY_DATE":null,"OBJECT_TYPE":"PAYLOAD","REV_AT_EPOCH":"130","REF_FRAME":"TEME","TLE_LINE1":"1 52363U 22045AJ  22167.08334491 -.00715253  00000-0 -86757-2 0  9992","COUNTRY_CODE":"US","INCLINATION":"53.2174","OBJECT_NAME":"STARLINK-3830","EPOCH":"2022-06-16T02:00:01.000224","MEAN_ANOMALY":"89.2100","ELEMENT_SET_NO":"999","ARG_OF_PERICENTER":"70.1834"},{"APOAPSIS":"351.779","MEAN_ELEMENT_THEORY":"SGP4","CENTER_NAME":"EARTH","TLE_LINE2":"2 52364  53.2139 202.6709 0002913  13.2381 290.3742 15.73179145  1308","NORAD_CAT_ID":"52364","SITE":"AFETR","RA_OF_ASC_NODE":"202.6709","MEAN_MOTION_DOT":"0.00078474","SEMIMAJOR_AXIS":"6727.955","PERIAPSIS":"347.860","GP_ID":"206291295","RCS_SIZE":"LARGE","MEAN_MOTION_DDOT":"0.0000000000000","ECCENTRICITY":"0.00029130","OBJECT_ID":"2022-045AK","PERIOD":"91.534","LAUNCH_DATE":"2022-04-29","TIME_SYSTEM":"UTC","BSTAR":"0.00055876000000","CLASSIFICATION_TYPE":"U","MEAN_MOTION":"15.73179145","OBJECT_TYPE":"PAYLOAD","DECAY_DATE":null,"FILE":"3497002","EPHEMERIS_TYPE":"0","REV_AT_EPOCH":"130","REF_FRAME":"TEME","TLE_LINE1":"1 52364U 22045AK  22167.08334491  .00078474  00000-0  55876-3 0  9997","INCLINATION":"53.2139","COUNTRY_CODE":"US","OBJECT_NAME":"STARLINK-3820","EPOCH":"2022-06-16T02:00:01.000224","ELEMENT_SET_NO":"999","MEAN_ANOMALY":"290.3742","ARG_OF_PERICENTER":"13.2381"},{"TLE_LINE1":"1 52365U 22045AL  22167.08334491  .00054813  00000-0  39234-3 0  9999","REF_FRAME":"TEME","REV_AT_EPOCH":"130","DECAY_DATE":null,"EPHEMERIS_TYPE":"0","FILE":"3497002","OBJECT_TYPE":"PAYLOAD","ARG_OF_PERICENTER":"10.2753","MEAN_ANOMALY":"290.9806","ELEMENT_SET_NO":"999","EPOCH":"2022-06-16T02:00:01.000224","OBJECT_NAME":"STARLINK-3874","COUNTRY_CODE":"US","INCLINATION":"53.2139","PERIAPSIS":"347.851","SEMIMAJOR_AXIS":"6727.891","MEAN_MOTION_DOT":"0.00054813","RA_OF_ASC_NODE":"202.6763","NORAD_CAT_ID":"52365","SITE":"AFETR","TLE_LINE2":"2 52365  53.2139 202.6763 0002831  10.2753 290.9806 15.73201507  1303","APOAPSIS":"351.661","CENTER_NAME":"EARTH","MEAN_ELEMENT_THEORY":"SGP4","MEAN_MOTION":"15.73201507","BSTAR":"0.00039234000000","CLASSIFICATION_TYPE":"U","TIME_SYSTEM":"UTC","LAUNCH_DATE":"2022-04-29","PERIOD":"91.533","OBJECT_ID":"2022-045AL","ECCENTRICITY":"0.00028310","GP_ID":"206291193","RCS_SIZE":"LARGE","MEAN_MOTION_DDOT":"0.0000000000000"},{"CLASSIFICATION_TYPE":"U","BSTAR":"-0.00015593000000","MEAN_MOTION":"15.73228533","LAUNCH_DATE":"2022-04-29","PERIOD":"91.532","TIME_SYSTEM":"UTC","OBJECT_ID":"2022-045AM","GP_ID":"206291739","RCS_SIZE":"LARGE","MEAN_MOTION_DDOT":"0.0000000000000","ECCENTRICITY":"0.00028910","SEMIMAJOR_AXIS":"6727.814","PERIAPSIS":"347.734","RA_OF_ASC_NODE":"202.6678","MEAN_MOTION_DOT":"-0.00022480","NORAD_CAT_ID":"52366","SITE":"AFETR","MEAN_ELEMENT_THEORY":"SGP4","CENTER_NAME":"EARTH","APOAPSIS":"351.624","TLE_LINE2":"2 52366  53.2138 202.6678 0002891  12.7140 292.1989 15.73228533  1305","ARG_OF_PERICENTER":"12.7140","ELEMENT_SET_NO":"999","MEAN_ANOMALY":"292.1989","OBJECT_NAME":"STARLINK-3808","EPOCH":"2022-06-16T02:00:01.000224","INCLINATION":"53.2138","COUNTRY_CODE":"US","TLE_LINE1":"1 52366U 22045AM  22167.08334491 -.00022480  00000-0 -15593-3 0  9999","REF_FRAME":"TEME","REV_AT_EPOCH":"130","OBJECT_TYPE":"PAYLOAD","EPHEMERIS_TYPE":"0","FILE":"3497002","DECAY_DATE":null},{"LAUNCH_DATE":"2022-04-29","PERIOD":"91.533","TIME_SYSTEM":"UTC","BSTAR":"0.00058006000000","CLASSIFICATION_TYPE":"U","MEAN_MOTION":"15.73201748","GP_ID":"206291439","RCS_SIZE":"LARGE","MEAN_MOTION_DDOT":"0.0000000000000","ECCENTRICITY":"0.00028670","OBJECT_ID":"2022-045AN","RA_OF_ASC_NODE":"202.6723","MEAN_MOTION_DOT":"0.00081599","SEMIMAJOR_AXIS":"6727.890","PERIAPSIS":"347.826","APOAPSIS":"351.684","CENTER_NAME":"EARTH","MEAN_ELEMENT_THEORY":"SGP4","TLE_LINE2":"2 52367  53.2138 202.6723 0002867  14.9998 288.0421 15.73201748  1309","SITE":"AFETR","NORAD_CAT_ID":"52367","ELEMENT_SET_NO":"999","MEAN_ANOMALY":"288.0421","ARG_OF_PERICENTER":"14.9998","INCLINATION":"53.2138","COUNTRY_CODE":"US","OBJECT_NAME":"STARLINK-3817","EPOCH":"2022-06-16T02:00:01.000224","REF_FRAME":"TEME","TLE_LINE1":"1 52367U 22045AN  22167.08334491  .00081599  00000-0  58006-3 0  9990","OBJECT_TYPE":"PAYLOAD","DECAY_DATE":null,"FILE":"3497002","EPHEMERIS_TYPE":"0","REV_AT_EPOCH":"130"},{"CLASSIFICATION_TYPE":"U","BSTAR":"0.00007439900000","MEAN_MOTION":"15.73222052","LAUNCH_DATE":"2022-04-29","PERIOD":"91.532","TIME_SYSTEM":"UTC","OBJECT_ID":"2022-045AP","GP_ID":"206291642","MEAN_MOTION_DDOT":"0.0000000000000","RCS_SIZE":"LARGE","ECCENTRICITY":"0.00027150","SEMIMAJOR_AXIS":"6727.832","PERIAPSIS":"347.871","RA_OF_ASC_NODE":"202.6644","MEAN_MOTION_DOT":"0.00009843","NORAD_CAT_ID":"52368","SITE":"AFETR","APOAPSIS":"351.524","CENTER_NAME":"EARTH","MEAN_ELEMENT_THEORY":"SGP4","TLE_LINE2":"2 52368  53.2137 202.6644 0002715  13.2626 293.3753 15.73222052  1301","ARG_OF_PERICENTER":"13.2626","ELEMENT_SET_NO":"999","MEAN_ANOMALY":"293.3753","OBJECT_NAME":"STARLINK-3834","EPOCH":"2022-06-16T02:00:01.000224","INCLINATION":"53.2137","COUNTRY_CODE":"US","TLE_LINE1":"1 52368U 22045AP  22167.08334491  .00009843  00000-0  74399-4 0  9997","REF_FRAME":"TEME","REV_AT_EPOCH":"130","OBJECT_TYPE":"PAYLOAD","DECAY_DATE":null,"EPHEMERIS_TYPE":"0","FILE":"3497002"},{"OBJECT_NAME":"STARLINK-3841","EPOCH":"2022-06-16T02:00:01.000224","INCLINATION":"53.2138","COUNTRY_CODE":"US","ARG_OF_PERICENTER":"16.7189","ELEMENT_SET_NO":"999","MEAN_ANOMALY":"287.4907","REV_AT_EPOCH":"130","OBJECT_TYPE":"PAYLOAD","DECAY_DATE":null,"EPHEMERIS_TYPE":"0","FILE":"3497002","TLE_LINE1":"1 52369U 22045AQ  22167.08334491 -.00031162  00000-0 -21795-3 0  9990","REF_FRAME":"TEME","OBJECT_ID":"2022-045AQ","MEAN_MOTION_DDOT":"0.0000000000000","GP_ID":"206291539","RCS_SIZE":"LARGE","ECCENTRICITY":"0.00028490","BSTAR":"-0.00021795000000","CLASSIFICATION_TYPE":"U","MEAN_MOTION":"15.73244339","LAUNCH_DATE":"2022-04-29","PERIOD":"91.531","TIME_SYSTEM":"UTC","NORAD_CAT_ID":"52369","SITE":"AFETR","APOAPSIS":"351.551","MEAN_ELEMENT_THEORY":"SGP4","CENTER_NAME":"EARTH","TLE_LINE2":"2 52369  53.2138 202.6700 0002849  16.7189 287.4907 15.73244339  1303","SEMIMAJOR_AXIS":"6727.769","PERIAPSIS":"347.717","RA_OF_ASC_NODE":"202.6700","MEAN_MOTION_DOT":"-0.00031162"},{"MEAN_MOTION":"15.73219465","CLASSIFICATION_TYPE":"U","BSTAR":"0.00058683000000","TIME_SYSTEM":"UTC","LAUNCH_DATE":"2022-04-29","PERIOD":"91.532","OBJECT_ID":"2022-045AR","ECCENTRICITY":"0.00030990","RCS_SIZE":"LARGE","GP_ID":"206291805","MEAN_MOTION_DDOT":"0.0000000000000","PERIAPSIS":"347.620","SEMIMAJOR_AXIS":"6727.840","MEAN_MOTION_DOT":"0.00082634","RA_OF_ASC_NODE":"202.6665","SITE":"AFETR","NORAD_CAT_ID":"52370","TLE_LINE2":"2 52370  53.2137 202.6665 0003099  21.7044 283.6070 15.73219465  1309","CENTER_NAME":"EARTH","MEAN_ELEMENT_THEORY":"SGP4","APOAPSIS":"351.790","ARG_OF_PERICENTER":"21.7044","MEAN_ANOMALY":"283.6070","ELEMENT_SET_NO":"999","OBJECT_NAME":"STARLINK-3827","EPOCH":"2022-06-16T02:00:01.000224","COUNTRY_CODE":"US","INCLINATION":"53.2137","TLE_LINE1":"1 52370U 22045AR  22167.08334491  .00082634  00000-0  58683-3 0  9996","REF_FRAME":"TEME","REV_AT_EPOCH":"130","FILE":"3497002","EPHEMERIS_TYPE":"0","DECAY_DATE":null,"OBJECT_TYPE":"PAYLOAD"},{"RA_OF_ASC_NODE":"202.6658","MEAN_MOTION_DOT":"-0.00018284","SEMIMAJOR_AXIS":"6727.804","PERIAPSIS":"347.671","APOAPSIS":"351.667","MEAN_ELEMENT_THEORY":"SGP4","CENTER_NAME":"EARTH","TLE_LINE2":"2 52371  53.2138 202.6658 0002970  15.3108 290.7155 15.73231957  1303","SITE":"AFETR","NORAD_CAT_ID":"52371","LAUNCH_DATE":"2022-04-29","PERIOD":"91.531","TIME_SYSTEM":"UTC","CLASSIFICATION_TYPE":"U","BSTAR":"-0.00012591000000","MEAN_MOTION":"15.73231957","GP_ID":"206291094","RCS_SIZE":"LARGE","MEAN_MOTION_DDOT":"0.0000000000000","ECCENTRICITY":"0.00029700","OBJECT_ID":"2022-045AS","REF_FRAME":"TEME","TLE_LINE1":"1 52371U 22045AS  22167.08334491 -.00018284  00000-0 -12591-3 0  9997","OBJECT_TYPE":"PAYLOAD","DECAY_DATE":null,"FILE":"3497002","EPHEMERIS_TYPE":"0","REV_AT_EPOCH":"130","ELEMENT_SET_NO":"999","MEAN_ANOMALY":"290.7155","ARG_OF_PERICENTER":"15.3108","INCLINATION":"53.2138","COUNTRY_CODE":"US","EPOCH":"2022-06-16T02:00:01.000224","OBJECT_NAME":"STARLINK-3798"},{"APOAPSIS":"351.686","MEAN_ELEMENT_THEORY":"SGP4","CENTER_NAME":"EARTH","TLE_LINE2":"2 52372  53.2136 202.6625 0003027  13.1106 294.6931 15.73238700  1302","SITE":"AFETR","NORAD_CAT_ID":"52372","RA_OF_ASC_NODE":"202.6625","MEAN_MOTION_DOT":"-0.00013707","SEMIMAJOR_AXIS":"6727.785","PERIAPSIS":"347.613","RCS_SIZE":"LARGE","GP_ID":"206291296","MEAN_MOTION_DDOT":"0.0000000000000","ECCENTRICITY":"0.00030270","OBJECT_ID":"2022-045AT","LAUNCH_DATE":"2022-04-29","PERIOD":"91.531","TIME_SYSTEM":"UTC","CLASSIFICATION_TYPE":"U","BSTAR":"-0.00009319900000","MEAN_MOTION":"15.73238700","OBJECT_TYPE":"PAYLOAD","DECAY_DATE":null,"EPHEMERIS_TYPE":"0","FILE":"3497002","REV_AT_EPOCH":"130","REF_FRAME":"TEME","TLE_LINE1":"1 52372U 22045AT  22167.08334491 -.00013707  00000-0 -93199-4 0  9997","INCLINATION":"53.2136","COUNTRY_CODE":"US","OBJECT_NAME":"STARLINK-3796","EPOCH":"2022-06-16T02:00:01.000224","ELEMENT_SET_NO":"999","MEAN_ANOMALY":"294.6931","ARG_OF_PERICENTER":"13.1106"}];
